[{"OBJECT_NAME":"FLOCK 4Q-11","OBJECT_ID":"2023-174T","EPOCH":"2026-03-07T04:08:06.607680","MEAN_MOTION":15.44986267,"ECCENTRICITY":0.00076553,"INCLINATION":97.3903,"RA_OF_ASC_NODE":152.7373,"ARG_OF_PERICENTER":164.3719,"MEAN_ANOMALY":195.7768,"EPHEMERIS_TYPE":0,"CLASSIFICATION_TYPE":"U","NORAD_CAT_ID":58273,"ELEMENT_SET_NO":999,"REV_AT_EPOCH":12981,"BSTAR":0.00063902405,"MEAN_MOTION_DOT":0.0003013,"MEAN_MOTION_DDOT":0},{"OBJECT_NAME":"FLOCK 4Q-36","OBJECT_ID":"2023-174U","EPOCH":"2026-03-07T13:05:13.223616","MEAN_MOTION":15.51020562,"ECCENTRICITY":0.00077451,"INCLINATION":97.3887,"RA_OF_ASC_NODE":155.7574,"ARG_OF_PERICENTER":152.9738,"MEAN_ANOMALY":207.1919,"EPHEMERIS_TYPE":0,"CLASSIFICATION_TYPE":"U","NORAD_CAT_ID":58274,"ELEMENT_SET_NO":999,"REV_AT_EPOCH":13004,"BSTAR":0.00063636767,"MEAN_MOTION_DOT":0.00037036,"MEAN_MOTION_DDOT":0},{"OBJECT_NAME":"FLOCK 4Q-12","OBJECT_ID":"2023-174V","EPOCH":"2026-03-07T05:34:19.939008","MEAN_MOTION":15.51558933,"ECCENTRICITY":0.0005785,"INCLINATION":97.3883,"RA_OF_ASC_NODE":155.3202,"ARG_OF_PERICENTER":162.0154,"MEAN_ANOMALY":198.1304,"EPHEMERIS_TYPE":0,"CLASSIFICATION_TYPE":"U","NORAD_CAT_ID":58275,"ELEMENT_SET_NO":999,"REV_AT_EPOCH":13001,"BSTAR":0.0018375,"MEAN_MOTION_DOT":0.00110135,"MEAN_MOTION_DDOT":0},{"OBJECT_NAME":"FLOCK 4Q-28","OBJECT_ID":"2023-174AA","EPOCH":"2026-03-07T11:59:00.855744","MEAN_MOTION":15.48877798,"ECCENTRICITY":0.00074168,"INCLINATION":97.391,"RA_OF_ASC_NODE":154.8286,"ARG_OF_PERICENTER":158.725,"MEAN_ANOMALY":201.431,"EPHEMERIS_TYPE":0,"CLASSIFICATION_TYPE":"U","NORAD_CAT_ID":58280,"ELEMENT_SET_NO":999,"REV_AT_EPOCH":12997,"BSTAR":0.00076784627,"MEAN_MOTION_DOT":0.00041477,"MEAN_MOTION_DDOT":0},{"OBJECT_NAME":"FLOCK 4Q-27","OBJECT_ID":"2023-174AC","EPOCH":"2026-03-07T05:40:52.241664","MEAN_MOTION":15.48846032,"ECCENTRICITY":0.0006655,"INCLINATION":97.3856,"RA_OF_ASC_NODE":154.1006,"ARG_OF_PERICENTER":156.3349,"MEAN_ANOMALY":203.8209,"EPHEMERIS_TYPE":0,"CLASSIFICATION_TYPE":"U","NORAD_CAT_ID":58282,"ELEMENT_SET_NO":999,"REV_AT_EPOCH":12994,"BSTAR":0.00081339,"MEAN_MOTION_DOT":0.00043899,"MEAN_MOTION_DDOT":0},{"OBJECT_NAME":"FLOCK 4Q-26","OBJECT_ID":"2023-174AE","EPOCH":"2026-03-07T11:19:47.953920","MEAN_MOTION":15.5068177,"ECCENTRICITY":0.00073102,"INCLINATION":97.39,"RA_OF_ASC_NODE":155.7691,"ARG_OF_PERICENTER":157.6759,"MEAN_ANOMALY":202.4812,"EPHEMERIS_TYPE":0,"CLASSIFICATION_TYPE":"U","NORAD_CAT_ID":58284,"ELEMENT_SET_NO":999,"REV_AT_EPOCH":13003,"BSTAR":0.00082190653,"MEAN_MOTION_DOT":0.00047346,"MEAN_MOTION_DDOT":0},{"OBJECT_NAME":"FLOCK 4Q-31","OBJECT_ID":"2023-174AF","EPOCH":"2026-03-07T12:03:46.833696","MEAN_MOTION":15.50211375,"ECCENTRICITY":0.00077951,"INCLINATION":97.3947,"RA_OF_ASC_NODE":155.4423,"ARG_OF_PERICENTER":159.3266,"MEAN_ANOMALY":200.8302,"EPHEMERIS_TYPE":0,"CLASSIFICATION_TYPE":"U","NORAD_CAT_ID":58285,"ELEMENT_SET_NO":999,"REV_AT_EPOCH":12999,"BSTAR":0.00088798213,"MEAN_MOTION_DOT":0.00050343,"MEAN_MOTION_DDOT":0},{"OBJECT_NAME":"FLOCK 4Q-30","OBJECT_ID":"2023-174AG","EPOCH":"2026-03-07T05:35:08.690208","MEAN_MOTION":15.50406517,"ECCENTRICITY":0.0007513,"INCLINATION":97.3948,"RA_OF_ASC_NODE":155.3461,"ARG_OF_PERICENTER":157.5985,"MEAN_ANOMALY":202.5596,"EPHEMERIS_TYPE":0,"CLASSIFICATION_TYPE":"U","NORAD_CAT_ID":58286,"ELEMENT_SET_NO":999,"REV_AT_EPOCH":12996,"BSTAR":0.00091543,"MEAN_MOTION_DOT":0.00052269,"MEAN_MOTION_DDOT":0},{"OBJECT_NAME":"PELICAN-1","OBJECT_ID":"2023-174AS","EPOCH":"2026-03-07T04:54:44.130816","MEAN_MOTION":15.63307997,"ECCENTRICITY":0.00095564,"INCLINATION":97.4004,"RA_OF_ASC_NODE":160.8414,"ARG_OF_PERICENTER":253.7799,"MEAN_ANOMALY":106.2408,"EPHEMERIS_TYPE":0,"CLASSIFICATION_TYPE":"U","NORAD_CAT_ID":58296,"ELEMENT_SET_NO":999,"REV_AT_EPOCH":13017,"BSTAR":0.0010617983,"MEAN_MOTION_DOT":0.000985,"MEAN_MOTION_DDOT":0},{"OBJECT_NAME":"FLOCK 4Q-25","OBJECT_ID":"2023-174AZ","EPOCH":"2026-03-07T05:11:06.364032","MEAN_MOTION":15.5626774,"ECCENTRICITY":0.0005374,"INCLINATION":97.3864,"RA_OF_ASC_NODE":156.1938,"ARG_OF_PERICENTER":143.2957,"MEAN_ANOMALY":216.8667,"EPHEMERIS_TYPE":0,"CLASSIFICATION_TYPE":"U","NORAD_CAT_ID":58303,"ELEMENT_SET_NO":999,"REV_AT_EPOCH":13008,"BSTAR":0.00093249,"MEAN_MOTION_DOT":0.00065862,"MEAN_MOTION_DDOT":0},{"OBJECT_NAME":"FLOCK 4Q-29","OBJECT_ID":"2023-174BA","EPOCH":"2026-03-07T04:41:39.973056","MEAN_MOTION":15.49327206,"ECCENTRICITY":0.00078044,"INCLINATION":97.3936,"RA_OF_ASC_NODE":154.9055,"ARG_OF_PERICENTER":148.9746,"MEAN_ANOMALY":211.1968,"EPHEMERIS_TYPE":0,"CLASSIFICATION_TYPE":"U","NORAD_CAT_ID":58304,"ELEMENT_SET_NO":999,"REV_AT_EPOCH":12993,"BSTAR":0.00070967674,"MEAN_MOTION_DOT":0.00038928,"MEAN_MOTION_DDOT":0},{"OBJECT_NAME":"FLOCK 4Q-22","OBJECT_ID":"2023-174BC","EPOCH":"2026-03-07T11:34:49.199232","MEAN_MOTION":15.51963741,"ECCENTRICITY":0.00066305,"INCLINATION":97.3852,"RA_OF_ASC_NODE":155.376,"ARG_OF_PERICENTER":152.2165,"MEAN_ANOMALY":207.9443,"EPHEMERIS_TYPE":0,"CLASSIFICATION_TYPE":"U","NORAD_CAT_ID":58306,"ELEMENT_SET_NO":999,"REV_AT_EPOCH":13005,"BSTAR":0.00091373205,"MEAN_MOTION_DOT":0.00055145,"MEAN_MOTION_DDOT":0},{"OBJECT_NAME":"FLOCK 4Q-23","OBJECT_ID":"2023-174BD","EPOCH":"2026-03-07T13:44:34.380096","MEAN_MOTION":15.5511028,"ECCENTRICITY":0.00069383,"INCLINATION":97.3956,"RA_OF_ASC_NODE":157.0188,"ARG_OF_PERICENTER":147.0203,"MEAN_ANOMALY":213.1485,"EPHEMERIS_TYPE":0,"CLASSIFICATION_TYPE":"U","NORAD_CAT_ID":58307,"ELEMENT_SET_NO":999,"REV_AT_EPOCH":13010,"BSTAR":0.00086750466,"MEAN_MOTION_DOT":0.00058686,"MEAN_MOTION_DDOT":0},{"OBJECT_NAME":"FLOCK 4Q-33","OBJECT_ID":"2023-174BE","EPOCH":"2026-03-07T05:01:38.379936","MEAN_MOTION":15.51024581,"ECCENTRICITY":0.0007519,"INCLINATION":97.3886,"RA_OF_ASC_NODE":155.034,"ARG_OF_PERICENTER":142.5063,"MEAN_ANOMALY":217.6715,"EPHEMERIS_TYPE":0,"CLASSIFICATION_TYPE":"U","NORAD_CAT_ID":58308,"ELEMENT_SET_NO":999,"REV_AT_EPOCH":12999,"BSTAR":0.00087287,"MEAN_MOTION_DOT":0.00050928,"MEAN_MOTION_DDOT":0},{"OBJECT_NAME":"FLOCK 4Q-35","OBJECT_ID":"2023-174BF","EPOCH":"2026-03-07T13:58:08.392512","MEAN_MOTION":15.50025311,"ECCENTRICITY":0.0008128,"INCLINATION":97.3898,"RA_OF_ASC_NODE":155.5838,"ARG_OF_PERICENTER":154.5866,"MEAN_ANOMALY":205.5786,"EPHEMERIS_TYPE":0,"CLASSIFICATION_TYPE":"U","NORAD_CAT_ID":58309,"ELEMENT_SET_NO":999,"REV_AT_EPOCH":13003,"BSTAR":0.00081674928,"MEAN_MOTION_DOT":0.00045974,"MEAN_MOTION_DDOT":0},{"OBJECT_NAME":"FLOCK 4Q-34","OBJECT_ID":"2023-174BN","EPOCH":"2026-03-07T12:28:15.640608","MEAN_MOTION":15.55327708,"ECCENTRICITY":0.00066611,"INCLINATION":97.3859,"RA_OF_ASC_NODE":156.3649,"ARG_OF_PERICENTER":148.9034,"MEAN_ANOMALY":211.2616,"EPHEMERIS_TYPE":0,"CLASSIFICATION_TYPE":"U","NORAD_CAT_ID":58316,"ELEMENT_SET_NO":999,"REV_AT_EPOCH":13010,"BSTAR":0.0010450996,"MEAN_MOTION_DOT":0.00071393,"MEAN_MOTION_DDOT":0}]
