FLOCK 4Q-11             
1 58273U 23174T   26066.17229870  .00030130  00000+0  63902-3 0  9997
2 58273  97.3903 152.7373 0007655 164.3719 195.7768 15.44986267129816
FLOCK 4Q-36             
1 58274U 23174U   26066.54529194  .00037036  00000+0  63637-3 0  9998
2 58274  97.3887 155.7574 0007745 152.9738 207.1919 15.51020562130046
FLOCK 4Q-12             
1 58275U 23174V   26066.23217522  .00110135  00000+0  18375-2 0  9994
2 58275  97.3883 155.3202 0005785 162.0154 198.1304 15.51558933130015
FLOCK 4Q-28             
1 58280U 23174AA  26066.49931546  .00041477  00000+0  76785-3 0  9999
2 58280  97.3910 154.8286 0007416 158.7250 201.4310 15.48877798129977
FLOCK 4Q-27             
1 58282U 23174AC  26066.23671576  .00043899  00000+0  81339-3 0  9998
2 58282  97.3856 154.1006 0006655 156.3349 203.8209 15.48846032129945
FLOCK 4Q-26             
1 58284U 23174AE  26066.47208280  .00047346  00000+0  82191-3 0  9992
2 58284  97.3900 155.7691 0007310 157.6759 202.4812 15.50681770130038
FLOCK 4Q-31             
1 58285U 23174AF  26066.50262539  .00050343  00000+0  88798-3 0  9994
2 58285  97.3947 155.4423 0007795 159.3266 200.8302 15.50211375129998
FLOCK 4Q-30             
1 58286U 23174AG  26066.23273947  .00052269  00000+0  91543-3 0  9991
2 58286  97.3948 155.3461 0007513 157.5985 202.5596 15.50406517129962
PELICAN-1               
1 58296U 23174AS  26066.20467744  .00098500  00000+0  10618-2 0  9990
2 58296  97.4004 160.8414 0009556 253.7799 106.2408 15.63307997130170
FLOCK 4Q-25             
1 58303U 23174AZ  26066.21604588  .00065862  00000+0  93249-3 0  9996
2 58303  97.3864 156.1938 0005374 143.2957 216.8667 15.56267740130082
FLOCK 4Q-29             
1 58304U 23174BA  26066.19560154  .00038928  00000+0  70968-3 0  9990
2 58304  97.3936 154.9055 0007804 148.9746 211.1968 15.49327206129937
FLOCK 4Q-22             
1 58306U 23174BC  26066.48251388  .00055145  00000+0  91373-3 0  9993
2 58306  97.3852 155.3760 0006630 152.2165 207.9443 15.51963741130052
FLOCK 4Q-23             
1 58307U 23174BD  26066.57262014  .00058686  00000+0  86750-3 0  9998
2 58307  97.3956 157.0188 0006938 147.0203 213.1485 15.55110280130104
FLOCK 4Q-33             
1 58308U 23174BE  26066.20947199  .00050928  00000+0  87287-3 0  9990
2 58308  97.3886 155.0340 0007519 142.5063 217.6715 15.51024581129999
FLOCK 4Q-35             
1 58309U 23174BF  26066.58204158  .00045974  00000+0  81675-3 0  9993
2 58309  97.3898 155.5838 0008128 154.5866 205.5786 15.50025311130033
FLOCK 4Q-34             
1 58316U 23174BN  26066.51962547  .00071393  00000+0  10451-2 0  9994
2 58316  97.3859 156.3649 0006661 148.9034 211.2616 15.55327708130105
